{"fetched_at":"2026-07-17T17:37:51.795Z","source":"https://celestrak.org/NORAD/elements/gp.php?GROUP=kuiper&FORMAT=JSON","constellation":"kuiper","records":[{"OBJECT_NAME":"KUIPER-00008","OBJECT_ID":"2025-088A","EPOCH":"2026-07-17T02:57:24.808320","CLASSIFICATION_TYPE":"U","MEAN_MOTION":14.7992813,"ECCENTRICITY":0.00004014,"INCLINATION":51.899,"RA_OF_ASC_NODE":235.6532,"ARG_OF_PERICENTER":91.9354,"MEAN_ANOMALY":268.1654,"EPHEMERIS_TYPE":0,"NORAD_CAT_ID":63724,"ELEMENT_SET_NO":999,"REV_AT_EPOCH":6721,"BSTAR":-0.00011560156,"MEAN_MOTION_DOT":-0.00001102,"MEAN_MOTION_DDOT":0},{"OBJECT_NAME":"KUIPER-00009","OBJECT_ID":"2025-088B","EPOCH":"2026-07-17T00:00:02.000160","CLASSIFICATION_TYPE":"U","MEAN_MOTION":14.81127686,"ECCENTRICITY":0.00003297,"INCLINATION":51.9005,"RA_OF_ASC_NODE":253.7997,"ARG_OF_PERICENTER":99.0983,"MEAN_ANOMALY":261.5255,"EPHEMERIS_TYPE":0,"NORAD_CAT_ID":63725,"ELEMENT_SET_NO":999,"REV_AT_EPOCH":555,"BSTAR":0.0045455095,"MEAN_MOTION_DOT":0.0003562,"MEAN_MOTION_DDOT":0},{"OBJECT_NAME":"KUIPER-00010","OBJECT_ID":"2025-088C","EPOCH":"2026-07-17T02:16:34.689216","CLASSIFICATION_TYPE":"U","MEAN_MOTION":14.79934369,"ECCENTRICITY":0.00003402,"INCLINATION":51.9012,"RA_OF_ASC_NODE":230.8817,"ARG_OF_PERICENTER":99.6379,"MEAN_ANOMALY":260.4622,"EPHEMERIS_TYPE":0,"NORAD_CAT_ID":63726,"ELEMENT_SET_NO":999,"REV_AT_EPOCH":6689,"BSTAR":-0.000044868357,"MEAN_MOTION_DOT":-0.00000563,"MEAN_MOTION_DDOT":0},{"OBJECT_NAME":"KUIPER-00011","OBJECT_ID":"2025-088D","EPOCH":"2026-07-16T09:03:53.688672","CLASSIFICATION_TYPE":"U","MEAN_MOTION":14.7993041,"ECCENTRICITY":0.000039,"INCLINATION":51.9002,"RA_OF_ASC_NODE":241.6032,"ARG_OF_PERICENTER":89.7901,"MEAN_ANOMALY":270.3106,"EPHEMERIS_TYPE":0,"NORAD_CAT_ID":63727,"ELEMENT_SET_NO":999,"REV_AT_EPOCH":6681,"BSTAR":0.000057689,"MEAN_MOTION_DOT":0.00000219,"MEAN_MOTION_DDOT":0},{"OBJECT_NAME":"KUIPER-00012","OBJECT_ID":"2025-088E","EPOCH":"2026-07-17T02:28:13.488960","CLASSIFICATION_TYPE":"U","MEAN_MOTION":14.79930465,"ECCENTRICITY":0.00005087,"INCLINATION":51.8998,"RA_OF_ASC_NODE":223.3286,"ARG_OF_PERICENTER":93.2923,"MEAN_ANOMALY":266.8098,"EPHEMERIS_TYPE":0,"NORAD_CAT_ID":63728,"ELEMENT_SET_NO":999,"REV_AT_EPOCH":6708,"BSTAR":-0.00012141711,"MEAN_MOTION_DOT":-0.00001146,"MEAN_MOTION_DDOT":0},{"OBJECT_NAME":"KUIPER-00013","OBJECT_ID":"2025-088F","EPOCH":"2026-07-16T08:36:42.544800","CLASSIFICATION_TYPE":"U","MEAN_MOTION":14.7993431,"ECCENTRICITY":0.0000266,"INCLINATION":51.9023,"RA_OF_ASC_NODE":259.1409,"ARG_OF_PERICENTER":98.0821,"MEAN_ANOMALY":262.0172,"EPHEMERIS_TYPE":0,"NORAD_CAT_ID":63729,"ELEMENT_SET_NO":999,"REV_AT_EPOCH":6662,"BSTAR":-0.000055598,"MEAN_MOTION_DOT":-0.00000645,"MEAN_MOTION_DDOT":0},{"OBJECT_NAME":"KUIPER-00014","OBJECT_ID":"2025-088G","EPOCH":"2026-07-17T03:14:59.786016","CLASSIFICATION_TYPE":"U","MEAN_MOTION":14.79923186,"ECCENTRICITY":0.00004469,"INCLINATION":51.9015,"RA_OF_ASC_NODE":255.6498,"ARG_OF_PERICENTER":84.5519,"MEAN_ANOMALY":275.5494,"EPHEMERIS_TYPE":0,"NORAD_CAT_ID":63730,"ELEMENT_SET_NO":999,"REV_AT_EPOCH":6655,"BSTAR":0.000065418235,"MEAN_MOTION_DOT":0.00000278,"MEAN_MOTION_DDOT":0},{"OBJECT_NAME":"KUIPER-00015","OBJECT_ID":"2025-088H","EPOCH":"2026-07-16T09:58:24.759840","CLASSIFICATION_TYPE":"U","MEAN_MOTION":14.79931225,"ECCENTRICITY":0.0000361,"INCLINATION":51.8994,"RA_OF_ASC_NODE":268.8943,"ARG_OF_PERICENTER":83.3855,"MEAN_ANOMALY":276.7148,"EPHEMERIS_TYPE":0,"NORAD_CAT_ID":63731,"ELEMENT_SET_NO":999,"REV_AT_EPOCH":6676,"BSTAR":0.000075952,"MEAN_MOTION_DOT":0.00000358,"MEAN_MOTION_DDOT":0},{"OBJECT_NAME":"KUIPER-00016","OBJECT_ID":"2025-088J","EPOCH":"2026-07-17T03:11:06.124992","CLASSIFICATION_TYPE":"U","MEAN_MOTION":14.79942331,"ECCENTRICITY":0.00004359,"INCLINATION":51.9003,"RA_OF_ASC_NODE":258.1751,"ARG_OF_PERICENTER":83.4746,"MEAN_ANOMALY":276.6266,"EPHEMERIS_TYPE":0,"NORAD_CAT_ID":63732,"ELEMENT_SET_NO":999,"REV_AT_EPOCH":6651,"BSTAR":0.00020508941,"MEAN_MOTION_DOT":0.00001343,"MEAN_MOTION_DDOT":0},{"OBJECT_NAME":"KUIPER-00018","OBJECT_ID":"2025-088K","EPOCH":"2026-07-17T02:38:01.136832","CLASSIFICATION_TYPE":"U","MEAN_MOTION":14.79926047,"ECCENTRICITY":0.00003915,"INCLINATION":51.9022,"RA_OF_ASC_NODE":248.3085,"ARG_OF_PERICENTER":88.8991,"MEAN_ANOMALY":271.2017,"EPHEMERIS_TYPE":0,"NORAD_CAT_ID":63733,"ELEMENT_SET_NO":999,"REV_AT_EPOCH":6665,"BSTAR":-0.000031578818,"MEAN_MOTION_DOT":-0.00000462,"MEAN_MOTION_DDOT":0},{"OBJECT_NAME":"KUIPER-00019","OBJECT_ID":"2025-088L","EPOCH":"2026-07-17T03:16:25.271904","CLASSIFICATION_TYPE":"U","MEAN_MOTION":14.79927917,"ECCENTRICITY":0.00004639,"INCLINATION":51.9002,"RA_OF_ASC_NODE":246.9483,"ARG_OF_PERICENTER":79.8917,"MEAN_ANOMALY":280.2098,"EPHEMERIS_TYPE":0,"NORAD_CAT_ID":63734,"ELEMENT_SET_NO":999,"REV_AT_EPOCH":6667,"BSTAR":-0.000059311845,"MEAN_MOTION_DOT":-0.00000673,"MEAN_MOTION_DDOT":0},{"OBJECT_NAME":"KUIPER-00020","OBJECT_ID":"2025-088M","EPOCH":"2026-07-17T04:11:24.221760","CLASSIFICATION_TYPE":"U","MEAN_MOTION":14.79913001,"ECCENTRICITY":0.00005066,"INCLINATION":51.9004,"RA_OF_ASC_NODE":250.5234,"ARG_OF_PERICENTER":76.4767,"MEAN_ANOMALY":283.6251,"EPHEMERIS_TYPE":0,"NORAD_CAT_ID":63735,"ELEMENT_SET_NO":999,"REV_AT_EPOCH":6683,"BSTAR":0.00006823771,"MEAN_MOTION_DOT":0.00000299,"MEAN_MOTION_DDOT":0},{"OBJECT_NAME":"KUIPER-00021","OBJECT_ID":"2025-088N","EPOCH":"2026-07-17T03:22:45.024096","CLASSIFICATION_TYPE":"U","MEAN_MOTION":14.79933671,"ECCENTRICITY":0.00003551,"INCLINATION":51.8997,"RA_OF_ASC_NODE":250.6287,"ARG_OF_PERICENTER":66.3563,"MEAN_ANOMALY":293.7436,"EPHEMERIS_TYPE":0,"NORAD_CAT_ID":63736,"ELEMENT_SET_NO":999,"REV_AT_EPOCH":6666,"BSTAR":0.000068173071,"MEAN_MOTION_DOT":0.00000299,"MEAN_MOTION_DDOT":0},{"OBJECT_NAME":"KUIPER-00023","OBJECT_ID":"2025-088P","EPOCH":"2026-07-16T13:32:13.608096","CLASSIFICATION_TYPE":"U","MEAN_MOTION":14.79904668,"ECCENTRICITY":0.0000424,"INCLINATION":51.9006,"RA_OF_ASC_NODE":255.6679,"ARG_OF_PERICENTER":91.0579,"MEAN_ANOMALY":269.0432,"EPHEMERIS_TYPE":0,"NORAD_CAT_ID":63737,"ELEMENT_SET_NO":999,"REV_AT_EPOCH":6684,"BSTAR":0.00013019,"MEAN_MOTION_DOT":0.00000771,"MEAN_MOTION_DDOT":0},{"OBJECT_NAME":"KUIPER-00024","OBJECT_ID":"2025-088Q","EPOCH":"2026-07-17T02:49:40.836864","CLASSIFICATION_TYPE":"U","MEAN_MOTION":14.79931059,"ECCENTRICITY":0.00003786,"INCLINATION":51.9027,"RA_OF_ASC_NODE":240.8185,"ARG_OF_PERICENTER":75.127,"MEAN_ANOMALY":284.9734,"EPHEMERIS_TYPE":0,"NORAD_CAT_ID":63738,"ELEMENT_SET_NO":999,"REV_AT_EPOCH":6722,"BSTAR":0.000061236102,"MEAN_MOTION_DOT":0.00000246,"MEAN_MOTION_DDOT":0},{"OBJECT_NAME":"KUIPER-00025","OBJECT_ID":"2025-088R","EPOCH":"2026-07-17T03:26:38.902848","CLASSIFICATION_TYPE":"U","MEAN_MOTION":14.79941543,"ECCENTRICITY":0.00003421,"INCLINATION":51.9026,"RA_OF_ASC_NODE":248.1861,"ARG_OF_PERICENTER":58.7473,"MEAN_ANOMALY":301.3523,"EPHEMERIS_TYPE":0,"NORAD_CAT_ID":63739,"ELEMENT_SET_NO":999,"REV_AT_EPOCH":6698,"BSTAR":0.00010502316,"MEAN_MOTION_DOT":0.0000058,"MEAN_MOTION_DDOT":0}]}
