KUIPER-00008            
1 63724U 25088A   26198.12320380 -.00001102  00000+0 -11560-3 0  9991
2 63724  51.8990 235.6532 0000401  91.9354 268.1654 14.79928130 67210
KUIPER-00009            
1 63725U 25088B   26198.00002315  .00035620  00000+0  45455-2 0  9993
2 63725  51.9005 253.7997 0000329  99.0983 261.5255 14.81127686  5554
KUIPER-00010            
1 63726U 25088C   26198.09484594 -.00000563  00000+0 -44868-4 0  9995
2 63726  51.9012 230.8817 0000340  99.6379 260.4622 14.79934369 66899
KUIPER-00011            
1 63727U 25088D   26197.37770473  .00000219  00000+0  57689-4 0  9991
2 63727  51.9002 241.6032 0000390  89.7901 270.3106 14.79930410 66816
KUIPER-00012            
1 63728U 25088E   26198.10293390 -.00001146  00000+0 -12142-3 0  9998
2 63728  51.8998 223.3286 0000508  93.2923 266.8098 14.79930465 67083
KUIPER-00013            
1 63729U 25088F   26197.35882575 -.00000645  00000+0 -55598-4 0  9990
2 63729  51.9023 259.1409 0000266  98.0821 262.0172 14.79934310 66622
KUIPER-00014            
1 63730U 25088G   26198.13541419  .00000278  00000+0  65418-4 0  9990
2 63730  51.9015 255.6498 0000446  84.5519 275.5494 14.79923186 66555
KUIPER-00015            
1 63731U 25088H   26197.41556435  .00000358  00000+0  75952-4 0  9998
2 63731  51.8994 268.8943 0000361  83.3855 276.7148 14.79931225 66763
KUIPER-00016            
1 63732U 25088J   26198.13270978  .00001343  00000+0  20509-3 0  9996
2 63732  51.9003 258.1751 0000435  83.4746 276.6266 14.79942331 66510
KUIPER-00018            
1 63733U 25088K   26198.10973538 -.00000462  00000+0 -31579-4 0  9999
2 63733  51.9022 248.3085 0000391  88.8991 271.2017 14.79926047 66651
KUIPER-00019            
1 63734U 25088L   26198.13640361 -.00000673  00000+0 -59312-4 0  9997
2 63734  51.9002 246.9483 0000463  79.8917 280.2098 14.79927917 66672
KUIPER-00020            
1 63735U 25088M   26198.17458590  .00000299  00000+0  68238-4 0  9992
2 63735  51.9004 250.5234 0000506  76.4767 283.6251 14.79913001 66839
KUIPER-00021            
1 63736U 25088N   26198.14079889  .00000299  00000+0  68173-4 0  9998
2 63736  51.8997 250.6287 0000355  66.3563 293.7436 14.79933671 66666
KUIPER-00023            
1 63737U 25088P   26197.56404639  .00000771  00000+0  13019-3 0  9992
2 63737  51.9006 255.6679 0000424  91.0579 269.0432 14.79904668 66844
KUIPER-00024            
1 63738U 25088Q   26198.11783376  .00000246  00000+0  61236-4 0  9995
2 63738  51.9027 240.8185 0000378  75.1270 284.9734 14.79931059 67223
KUIPER-00025            
1 63739U 25088R   26198.14350582  .00000580  00000+0  10502-3 0  9998
2 63739  51.9026 248.1861 0000342  58.7473 301.3523 14.79941543 66989
